[{"OBJECT_NAME":"STARLINK-3525","OBJECT_ID":"2022-016V","EPOCH":"2026-03-09T22:28:28.708032","MEAN_MOTION":15.08831494,"ECCENTRICITY":0.00013765,"INCLINATION":53.2169,"RA_OF_ASC_NODE":318.025,"ARG_OF_PERICENTER":84.0721,"MEAN_ANOMALY":276.0428,"EPHEMERIS_TYPE":0,"CLASSIFICATION_TYPE":"U","NORAD_CAT_ID":51733,"ELEMENT_SET_NO":999,"REV_AT_EPOCH":22360,"BSTAR":-0.00016468254,"MEAN_MOTION_DOT":-2.907e-5,"MEAN_MOTION_DDOT":0},{"OBJECT_NAME":"CZ-6A DEB","OBJECT_ID":"2022-151KK","EPOCH":"2026-03-09T15:42:53.993376","MEAN_MOTION":15.13886585,"ECCENTRICITY":0.0019766,"INCLINATION":98.5478,"RA_OF_ASC_NODE":140.8365,"ARG_OF_PERICENTER":144.334,"MEAN_ANOMALY":215.9214,"EPHEMERIS_TYPE":0,"CLASSIFICATION_TYPE":"U","NORAD_CAT_ID":54531,"ELEMENT_SET_NO":999,"REV_AT_EPOCH":8393,"BSTAR":0.0066445138,"MEAN_MOTION_DOT":0.00122683,"MEAN_MOTION_DDOT":0}]
